{
    "links": {
        "self": "http://www.neowsapp.com/rest/v1/neo/3378273?api_key=iIulBulltgU6a56xZRHN4H3l9WmuAYTsLGpBGhQ2"
    },
    "id": "3378273",
    "neo_reference_id": "3378273",
    "name": "(2007 LU)",
    "designation": "2007 LU",
    "nasa_jpl_url": "http://ssd.jpl.nasa.gov/sbdb.cgi?sstr=3378273",
    "absolute_magnitude_h": 23.4,
    "estimated_diameter": {
        "kilometers": {
            "estimated_diameter_min": 0.0555334912,
            "estimated_diameter_max": 0.1241766613
        },
        "meters": {
            "estimated_diameter_min": 55.5334911581,
            "estimated_diameter_max": 124.1766612574
        },
        "miles": {
            "estimated_diameter_min": 0.0345069009,
            "estimated_diameter_max": 0.0771597762
        },
        "feet": {
            "estimated_diameter_min": 182.1964991311,
            "estimated_diameter_max": 407.4037573197
        }
    },
    "is_potentially_hazardous_asteroid": false,
    "close_approach_data": [
        {
            "close_approach_date": "2007-06-02",
            "close_approach_date_full": "2007-Jun-02 15:02",
            "epoch_date_close_approach": 1180796520000,
            "relative_velocity": {
                "kilometers_per_second": "7.4017481845",
                "kilometers_per_hour": "26646.2934642864",
                "miles_per_hour": "16556.9705139617"
            },
            "miss_distance": {
                "astronomical": "0.0178656231",
                "lunar": "6.9497273859",
                "kilometers": "2672659.161982797",
                "miles": "1660713.3949527186"
            },
            "orbiting_body": "Earth"
        }
    ],
    "orbital_data": {
        "orbit_id": "9",
        "orbit_determination_date": "2017-04-06 09:06:22",
        "first_observation_date": "2007-06-09",
        "last_observation_date": "2007-06-24",
        "data_arc_in_days": 15,
        "observations_used": 35,
        "orbit_uncertainty": "7",
        "minimum_orbit_intersection": ".00567932",
        "jupiter_tisserand_invariant": "3.482",
        "epoch_osculation": "2459000.5",
        "eccentricity": ".5352826998757463",
        "semi_major_axis": "2.177415715698365",
        "inclination": "1.370555662079375",
        "ascending_node_longitude": "42.26344668927985",
        "orbital_period": "1173.573938548991",
        "perihelion_distance": "1.011882752647464",
        "perihelion_argument": "197.5386151477398",
        "aphelion_distance": "3.342948678749267",
        "perihelion_time": "2458945.228795121449",
        "mean_anomaly": "16.95473382859883",
        "mean_motion": ".306755278193298",
        "equinox": "J2000",
        "orbit_class": {
            "orbit_class_type": "APO",
            "orbit_class_description": "Near-Earth asteroid orbits which cross the Earth’s orbit similar to that of 1862 Apollo",
            "orbit_class_range": "a (semi-major axis) > 1.0 AU; q (perihelion) < 1.017 AU"
        }
    },
    "is_sentry_object": false
}